CCSDS_OMM_VERS = 2.0
CREATION_DATE  = 
ORIGINATOR     = 

OBJECT_NAME    = STARLINK-35342
OBJECT_ID      = 2025-243E
CENTER_NAME    = EARTH
REF_FRAME      = TEME
TIME_SYSTEM    = UTC
MEAN_ELEMENT_THEORY = SGP/SGP4

EPOCH          = 2025-11-22T20:00:01.999008
MEAN_MOTION    = 15.46334970
ECCENTRICITY   = .0001247
INCLINATION    = 53.1595
RA_OF_ASC_NODE = 21.9932
ARG_OF_PERICENTER = 85.7202
MEAN_ANOMALY   = 67.4781

EPHEMERIS_TYPE = 0
CLASSIFICATION_TYPE = U
NORAD_CAT_ID   = 66181
ELEMENT_SET_NO = 999
REV_AT_EPOCH   = 538
BSTAR          = -.4671E-1
MEAN_MOTION_DOT = -.2080213E-1
MEAN_MOTION_DDOT = 0

CCSDS_OMM_VERS = 2.0
CREATION_DATE  = 
ORIGINATOR     = 

OBJECT_NAME    = STARLINK-35333
OBJECT_ID      = 2025-243F
CENTER_NAME    = EARTH
REF_FRAME      = TEME
TIME_SYSTEM    = UTC
MEAN_ELEMENT_THEORY = SGP/SGP4

EPOCH          = 2025-11-22T20:00:01.999008
MEAN_MOTION    = 15.43442794
ECCENTRICITY   = .0001587
INCLINATION    = 53.1596
RA_OF_ASC_NODE = 22.0168
ARG_OF_PERICENTER = 63.0404
MEAN_ANOMALY   = 77.9714

EPHEMERIS_TYPE = 0
CLASSIFICATION_TYPE = U
NORAD_CAT_ID   = 66182
ELEMENT_SET_NO = 999
REV_AT_EPOCH   = 533
BSTAR          = -.51763E-1
MEAN_MOTION_DOT = -.2086146E-1
MEAN_MOTION_DDOT = 0

CCSDS_OMM_VERS = 2.0
CREATION_DATE  = 
ORIGINATOR     = 

OBJECT_NAME    = STARLINK-35310
OBJECT_ID      = 2025-243G
CENTER_NAME    = EARTH
REF_FRAME      = TEME
TIME_SYSTEM    = UTC
MEAN_ELEMENT_THEORY = SGP/SGP4

EPOCH          = 2025-11-22T20:00:01.999008
MEAN_MOTION    = 15.44664053
ECCENTRICITY   = .0001566
INCLINATION    = 53.1592
RA_OF_ASC_NODE = 22.0122
ARG_OF_PERICENTER = 70.9385
MEAN_ANOMALY   = 73.2869

EPHEMERIS_TYPE = 0
CLASSIFICATION_TYPE = U
NORAD_CAT_ID   = 66183
ELEMENT_SET_NO = 999
REV_AT_EPOCH   = 544
BSTAR          = -.49835E-1
MEAN_MOTION_DOT = -.209328E-1
MEAN_MOTION_DDOT = 0

CCSDS_OMM_VERS = 2.0
CREATION_DATE  = 
ORIGINATOR     = 

OBJECT_NAME    = STARLINK-35317
OBJECT_ID      = 2025-243H
CENTER_NAME    = EARTH
REF_FRAME      = TEME
TIME_SYSTEM    = UTC
MEAN_ELEMENT_THEORY = SGP/SGP4

EPOCH          = 2025-11-22T20:00:01.999008
MEAN_MOTION    = 15.49653245
ECCENTRICITY   = .0001458
INCLINATION    = 53.1595
RA_OF_ASC_NODE = 22.0347
ARG_OF_PERICENTER = 74.3896
MEAN_ANOMALY   = 59.3349

EPHEMERIS_TYPE = 0
CLASSIFICATION_TYPE = U
NORAD_CAT_ID   = 66184
ELEMENT_SET_NO = 999
REV_AT_EPOCH   = 538
BSTAR          = -.19301E-1
MEAN_MOTION_DOT = -.992753E-2
MEAN_MOTION_DDOT = 0

CCSDS_OMM_VERS = 2.0
CREATION_DATE  = 
ORIGINATOR     = 

OBJECT_NAME    = STARLINK-35377
OBJECT_ID      = 2025-243J
CENTER_NAME    = EARTH
REF_FRAME      = TEME
TIME_SYSTEM    = UTC
MEAN_ELEMENT_THEORY = SGP/SGP4

EPOCH          = 2025-11-22T20:00:01.999008
MEAN_MOTION    = 15.46958697
ECCENTRICITY   = .0001521
INCLINATION    = 53.1597
RA_OF_ASC_NODE = 22.0476
ARG_OF_PERICENTER = 71.1291
MEAN_ANOMALY   = 56.5553

EPHEMERIS_TYPE = 0
CLASSIFICATION_TYPE = U
NORAD_CAT_ID   = 66185
ELEMENT_SET_NO = 999
REV_AT_EPOCH   = 544
BSTAR          = -.46196E-1
MEAN_MOTION_DOT = -.2100187E-1
MEAN_MOTION_DDOT = 0

CCSDS_OMM_VERS = 2.0
CREATION_DATE  = 
ORIGINATOR     = 

OBJECT_NAME    = STARLINK-35365
OBJECT_ID      = 2025-243K
CENTER_NAME    = EARTH
REF_FRAME      = TEME
TIME_SYSTEM    = UTC
MEAN_ELEMENT_THEORY = SGP/SGP4

EPOCH          = 2025-11-22T20:00:01.999008
MEAN_MOTION    = 15.48736912
ECCENTRICITY   = .0001347
INCLINATION    = 53.1594
RA_OF_ASC_NODE = 22.0511
ARG_OF_PERICENTER = 69.4335
MEAN_ANOMALY   = 56.5272

EPHEMERIS_TYPE = 0
CLASSIFICATION_TYPE = U
NORAD_CAT_ID   = 66186
ELEMENT_SET_NO = 999
REV_AT_EPOCH   = 538
BSTAR          = -.4337E-1
MEAN_MOTION_DOT = -.2099014E-1
MEAN_MOTION_DDOT = 0

CCSDS_OMM_VERS = 2.0
CREATION_DATE  = 
ORIGINATOR     = 

OBJECT_NAME    = STARLINK-35350
OBJECT_ID      = 2025-243L
CENTER_NAME    = EARTH
REF_FRAME      = TEME
TIME_SYSTEM    = UTC
MEAN_ELEMENT_THEORY = SGP/SGP4

EPOCH          = 2025-11-22T20:00:01.999008
MEAN_MOTION    = 15.45828909
ECCENTRICITY   = .0001243
INCLINATION    = 53.1599
RA_OF_ASC_NODE = 22.0570
ARG_OF_PERICENTER = 64.2528
MEAN_ANOMALY   = 58.8648

EPHEMERIS_TYPE = 0
CLASSIFICATION_TYPE = U
NORAD_CAT_ID   = 66187
ELEMENT_SET_NO = 999
REV_AT_EPOCH   = 538
BSTAR          = -.4786E-1
MEAN_MOTION_DOT = -.2092693E-1
MEAN_MOTION_DDOT = 0

CCSDS_OMM_VERS = 2.0
CREATION_DATE  = 
ORIGINATOR     = 

OBJECT_NAME    = STARLINK-35041
OBJECT_ID      = 2025-243M
CENTER_NAME    = EARTH
REF_FRAME      = TEME
TIME_SYSTEM    = UTC
MEAN_ELEMENT_THEORY = SGP/SGP4

EPOCH          = 2025-11-22T20:00:01.999008
MEAN_MOTION    = 15.49323920
ECCENTRICITY   = .0001029
INCLINATION    = 53.1593
RA_OF_ASC_NODE = 22.0307
ARG_OF_PERICENTER = 79.4497
MEAN_ANOMALY   = 56.2503

EPHEMERIS_TYPE = 0
CLASSIFICATION_TYPE = U
NORAD_CAT_ID   = 66188
ELEMENT_SET_NO = 999
REV_AT_EPOCH   = 543
BSTAR          = -.28203E-3
MEAN_MOTION_DOT = -.16109E-3
MEAN_MOTION_DDOT = 0

CCSDS_OMM_VERS = 2.0
CREATION_DATE  = 
ORIGINATOR     = 

OBJECT_NAME    = STARLINK-34694
OBJECT_ID      = 2025-243N
CENTER_NAME    = EARTH
REF_FRAME      = TEME
TIME_SYSTEM    = UTC
MEAN_ELEMENT_THEORY = SGP/SGP4

EPOCH          = 2025-11-22T20:00:01.999008
MEAN_MOTION    = 15.49284398
ECCENTRICITY   = .0001095
INCLINATION    = 53.1594
RA_OF_ASC_NODE = 22.0227
ARG_OF_PERICENTER = 83.0635
MEAN_ANOMALY   = 56.5008

EPHEMERIS_TYPE = 0
CLASSIFICATION_TYPE = U
NORAD_CAT_ID   = 66189
ELEMENT_SET_NO = 999
REV_AT_EPOCH   = 538
BSTAR          = .25244E-3
MEAN_MOTION_DOT = .13604E-3
MEAN_MOTION_DDOT = 0

CCSDS_OMM_VERS = 2.0
CREATION_DATE  = 
ORIGINATOR     = 

OBJECT_NAME    = STARLINK-34863
OBJECT_ID      = 2025-243P
CENTER_NAME    = EARTH
REF_FRAME      = TEME
TIME_SYSTEM    = UTC
MEAN_ELEMENT_THEORY = SGP/SGP4

EPOCH          = 2025-11-22T20:00:01.999008
MEAN_MOTION    = 15.49496109
ECCENTRICITY   = .0001245
INCLINATION    = 53.1596
RA_OF_ASC_NODE = 22.0379
ARG_OF_PERICENTER = 79.1401
MEAN_ANOMALY   = 52.7103

EPHEMERIS_TYPE = 0
CLASSIFICATION_TYPE = U
NORAD_CAT_ID   = 66190
ELEMENT_SET_NO = 999
REV_AT_EPOCH   = 538
BSTAR          = -.41898E-1
MEAN_MOTION_DOT = -.2084855E-1
MEAN_MOTION_DDOT = 0

CCSDS_OMM_VERS = 2.0
CREATION_DATE  = 
ORIGINATOR     = 

OBJECT_NAME    = STARLINK-35061
OBJECT_ID      = 2025-243Q
CENTER_NAME    = EARTH
REF_FRAME      = TEME
TIME_SYSTEM    = UTC
MEAN_ELEMENT_THEORY = SGP/SGP4

EPOCH          = 2025-11-22T20:00:01.999008
MEAN_MOTION    = 15.43662640
ECCENTRICITY   = .0001412
INCLINATION    = 53.1597
RA_OF_ASC_NODE = 22.0246
ARG_OF_PERICENTER = 67.3975
MEAN_ANOMALY   = 70.7860

EPHEMERIS_TYPE = 0
CLASSIFICATION_TYPE = U
NORAD_CAT_ID   = 66191
ELEMENT_SET_NO = 999
REV_AT_EPOCH   = 543
BSTAR          = -.5143E-1
MEAN_MOTION_DOT = -.208799E-1
MEAN_MOTION_DDOT = 0

CCSDS_OMM_VERS = 2.0
CREATION_DATE  = 
ORIGINATOR     = 

OBJECT_NAME    = STARLINK-34937
OBJECT_ID      = 2025-243R
CENTER_NAME    = EARTH
REF_FRAME      = TEME
TIME_SYSTEM    = UTC
MEAN_ELEMENT_THEORY = SGP/SGP4

EPOCH          = 2025-11-22T20:00:01.999008
MEAN_MOTION    = 15.42583383
ECCENTRICITY   = .0001347
INCLINATION    = 53.1588
RA_OF_ASC_NODE = 22.0393
ARG_OF_PERICENTER = 67.9776
MEAN_ANOMALY   = 62.9558

EPHEMERIS_TYPE = 0
CLASSIFICATION_TYPE = U
NORAD_CAT_ID   = 66192
ELEMENT_SET_NO = 999
REV_AT_EPOCH   = 517
BSTAR          = -.5314E-1
MEAN_MOTION_DOT = -.2080537E-1
MEAN_MOTION_DDOT = 0

