STARLINK-35342          
1 66181U 25243E   25326.83335647 -.02080213  00000+0 -46710-1 0  9991
2 66181  53.1595  21.9932 0001247  85.7202  67.4781 15.46334970  5387
STARLINK-35333          
1 66182U 25243F   25326.83335647 -.02086146  00000+0 -51763-1 0  9997
2 66182  53.1596  22.0168 0001587  63.0404  77.9714 15.43442794  5330
STARLINK-35310          
1 66183U 25243G   25326.83335647 -.02093280  00000+0 -49835-1 0  9992
2 66183  53.1592  22.0122 0001566  70.9385  73.2869 15.44664053  5446
STARLINK-35317          
1 66184U 25243H   25326.83335647 -.00992753  00000+0 -19301-1 0  9999
2 66184  53.1595  22.0347 0001458  74.3896  59.3349 15.49653245  5381
STARLINK-35377          
1 66185U 25243J   25326.83335647 -.02100187  00000+0 -46196-1 0  9996
2 66185  53.1597  22.0476 0001521  71.1291  56.5553 15.46958697  5441
STARLINK-35365          
1 66186U 25243K   25326.83335647 -.02099014  00000+0 -43370-1 0  9994
2 66186  53.1594  22.0511 0001347  69.4335  56.5272 15.48736912  5381
STARLINK-35350          
1 66187U 25243L   25326.83335647 -.02092693  00000+0 -47860-1 0  9999
2 66187  53.1599  22.0570 0001243  64.2528  58.8648 15.45828909  5381
STARLINK-35041          
1 66188U 25243M   25326.83335647 -.00016109  00000+0 -28203-3 0  9998
2 66188  53.1593  22.0307 0001029  79.4497  56.2503 15.49323920  5434
STARLINK-34694          
1 66189U 25243N   25326.83335647  .00013604  00000+0  25244-3 0  9996
2 66189  53.1594  22.0227 0001095  83.0635  56.5008 15.49284398  5387
STARLINK-34863          
1 66190U 25243P   25326.83335647 -.02084855  00000+0 -41898-1 0  9999
2 66190  53.1596  22.0379 0001245  79.1401  52.7103 15.49496109  5382
STARLINK-35061          
1 66191U 25243Q   25326.83335647 -.02087990  00000+0 -51430-1 0  9996
2 66191  53.1597  22.0246 0001412  67.3975  70.7860 15.43662640  5433
STARLINK-34937          
1 66192U 25243R   25326.83335647 -.02080537  00000+0 -53140-1 0  9997
2 66192  53.1588  22.0393 0001347  67.9776  62.9558 15.42583383  5172
